HIMAWARI-8              
1 40267U 14060A   24153.72526069 -.00000272  00000+0  00000+0 0  9992
2 40267   0.0172 108.5543 0000739 335.8990 207.9852  1.00271054 35385
